*******************************************************************************
JPL/HORIZONS              4366 Venikagan (1979 YV8)        2023-Sep-04 11:28:48
Rec #:    4366 (+COV) Soln.date: 2023-Aug-23_18:05:13   # obs: 3316 (1952-2023)
 
IAU76/J2000 helio. ecliptic osc. elements (au, days, deg., period=Julian yrs):
 
  EPOCH=  2457393.5 ! 2016-Jan-06.00 (TDB)         Residual RMS= .26783
   EC= .1393707493974027   QR= 2.717576551035122   TP= 2456546.8326894967
   OM= 38.57875848388723   W=  87.90014216527528   IN= 1.729871925321952
   A= 3.157662314094394    MA= 148.7196450150275   ADIST= 3.597748077153667
   PER= 5.61121            N= .17565299            ANGMOM= .030269474
   DAN= 3.0806             DDN= 3.11222            L= 126.4779441
   B= 1.7287099            MOID= 1.73339999        TP= 2013-Sep-11.3326894967
 
Asteroid physical parameters (km, seconds, rotational period in hours):
   GM= n.a.                RAD= 8.175              ROTPER= 60.48
   H= 12.51                G= .150                 B-V= n.a.
                           ALBEDO= .096            STYP= n.a.

ASTEROID comments: 
1: soln ref.= JPL#50, OCC=0
2: source=ORB
*******************************************************************************


*******************************************************************************
Ephemeris / API_USER Mon Sep  4 11:28:48 2023 Pasadena, USA      / Horizons
*******************************************************************************
Target body name: 4366 Venikagan (1979 YV8)       {source: JPL#50}
Center body name: Solar System Barycenter (0)     {source: DE441}
Center-site name: BODY CENTER
*******************************************************************************
Start time      : A.D. 2023-Aug-12 00:00:00.0000 TDB
Stop  time      : A.D. 2023-Aug-13 00:00:00.0000 TDB
Step-size       : 2880 minutes
*******************************************************************************
Center geodetic : 0.0, 0.0, 0.0                   {E-lon(deg),Lat(deg),Alt(km)}
Center cylindric: 0.0, 0.0, 0.0                   {E-lon(deg),Dxy(km),Dz(km)}
Center radii    : (undefined)
Small perturbers: Yes                             {source: SB441-N16}
Output units    : KM-S
Calendar mode   : Mixed Julian/Gregorian
Output type     : GEOMETRIC cartesian states
Output format   : 2 (position and velocity)
Reference frame : Ecliptic of J2000.0
*******************************************************************************
Initial IAU76/J2000 heliocentric ecliptic osculating elements (au, days, deg.):
  EPOCH=  2457393.5 ! 2016-Jan-06.00 (TDB)         Residual RMS= .26783        
   EC= .1393707493974027   QR= 2.717576551035122   TP= 2456546.8326894967      
   OM= 38.57875848388723   W=  87.90014216527528   IN= 1.729871925321952       
  Equivalent ICRF heliocentric cartesian coordinates (au, au/d):
   X= 7.605180602796755E-01  Y=-3.139857750913253E+00  Z=-1.466044020322678E+00
  VX= 8.451372677557436E-03 VY= 1.234408546854133E-03 VZ= 3.948868007962096E-04
Asteroid physical parameters (km, seconds, rotational period in hours):        
   GM= n.a.                RAD= 8.175              ROTPER= 60.48               
   H= 12.51                G= .150                 B-V= n.a.                   
                           ALBEDO= .096            STYP= n.a.                  
*******************************************************************************
JDTDB
   X     Y     Z
   VX    VY    VZ
*******************************************************************************
$$SOE
2460168.500000000 = A.D. 2023-Aug-12 00:00:00.0000 TDB 
 X = 4.237776139138951E+08 Y = 2.139100844029119E+08 Z =-2.917869336574197E+06
 VX=-9.398219961754275E+00 VY= 1.374478784017165E+01 VZ= 5.006445770671082E-01
$$EOE
*******************************************************************************
 
TIME

  Barycentric Dynamical Time ("TDB" or T_eph) output was requested. This
continuous coordinate time is equivalent to the relativistic proper time
of a clock at rest in a reference frame co-moving with the solar system
barycenter but outside the system's gravity well. It is the independent
variable in the solar system relativistic equations of motion.

  TDB runs at a uniform rate of one SI second per second and is independent
of irregularities in Earth's rotation.
 
CALENDAR SYSTEM

  Mixed calendar mode was active such that calendar dates after AD 1582-Oct-15
(if any) are in the modern Gregorian system. Dates prior to 1582-Oct-5 (if any)
are in the Julian calendar system, which is automatically extended for dates
prior to its adoption on 45-Jan-1 BC.  The Julian calendar is useful for
matching historical dates. The Gregorian calendar more accurately corresponds
to the Earth's orbital motion and seasons. A "Gregorian-only" calendar mode is
available if such physical events are the primary interest.

REFERENCE FRAME AND COORDINATES

  Ecliptic at the standard reference epoch

    Reference epoch: J2000.0
    X-Y plane: adopted Earth orbital plane at the reference epoch
               Note: IAU76 obliquity of 84381.448 arcseconds wrt ICRF X-Y plane
    X-axis   : ICRF
    Z-axis   : perpendicular to the X-Y plane in the directional (+ or -) sense
               of Earth's north pole at the reference epoch.

  Symbol meaning:

    JDTDB    Julian Day Number, Barycentric Dynamical Time
      X      X-component of position vector (km)
      Y      Y-component of position vector (km)
      Z      Z-component of position vector (km)
      VX     X-component of velocity vector (km/sec)                           
      VY     Y-component of velocity vector (km/sec)                           
      VZ     Z-component of velocity vector (km/sec)                           

ABERRATIONS AND CORRECTIONS

 Geometric state vectors have NO corrections or aberrations applied.

Computations by ...

    Solar System Dynamics Group, Horizons On-Line Ephemeris System
    4800 Oak Grove Drive, Jet Propulsion Laboratory
    Pasadena, CA  91109   USA

    General site: https://ssd.jpl.nasa.gov/
    Mailing list: https://ssd.jpl.nasa.gov/email_list.html
    System news : https://ssd.jpl.nasa.gov/horizons/news.html
    User Guide  : https://ssd.jpl.nasa.gov/horizons/manual.html
    Connect     : browser        https://ssd.jpl.nasa.gov/horizons/app.html#/x
                  API            https://ssd-api.jpl.nasa.gov/doc/horizons.html
                  command-line   telnet ssd.jpl.nasa.gov 6775
                  e-mail/batch   https://ssd.jpl.nasa.gov/ftp/ssd/hrzn_batch.txt
                  scripts        https://ssd.jpl.nasa.gov/ftp/ssd/SCRIPTS
    Author      : Jon.D.Giorgini@jpl.nasa.gov
*******************************************************************************
